STARLINK-36986          
1 68207U 26053A   26088.16668981 -.00019842  00000+0 -10298-3 0  9996
2 68207  97.2840 323.3692 0001384 100.5956 257.5975 15.80836809  3141
STARLINK-37009          
1 68208U 26053B   26088.16668981  .00046479  00000+0  24238-3 0  9990
2 68208  97.2842 323.3702 0001844  85.3276 277.1605 15.80789874  3149
STARLINK-36948          
1 68209U 26053C   26088.16668981  .00034869  00000+0  18212-3 0  9996
2 68209  97.2844 323.3731 0001866 104.1827 262.5641 15.80806491  3031
STARLINK-37119          
1 68210U 26053D   26088.16668981 -.00039166  00000+0 -20441-3 0  9992
2 68210  97.2841 323.3733 0001480 114.6468 256.3667 15.80840910  3146
STARLINK-37120          
1 68211U 26053E   26088.16668981  .00024652  00000+0  12918-3 0  9995
2 68211  97.2843 323.3752 0001332  84.9207 290.3931 15.80797847  3126
STARLINK-37117          
1 68212U 26053F   26088.16668981 -.00007133  00000+0 -36512-4 0  9990
2 68212  97.2842 323.3777 0001463  94.8759 284.6938 15.80824466  3143
STARLINK-37116          
1 68213U 26053G   26088.16668981  .00043917  00000+0  22907-3 0  9991
2 68213  97.2843 323.3794 0001601  98.3849 285.4724 15.80796107  3149
STARLINK-35854          
1 68214U 26053H   26088.16668981 -.00022708  00000+0 -11803-3 0  9992
2 68214  97.2841 323.3806 0001484  89.3076 298.8070 15.80831223  2907
STARLINK-36272          
1 68215U 26053J   26088.16668981  .00026405  00000+0  13826-3 0  9996
2 68215  97.2842 323.3827 0001402 108.0529 284.3489 15.80802439  3030
STARLINK-37014          
1 68216U 26053K   26088.16668981  .00027907  00000+0  14603-3 0  9999
2 68216  97.2843 323.3844 0001460 115.8607 280.8126 15.80806719  3144
STARLINK-37011          
1 68217U 26053L   26088.16668981  .00006741  00000+0  35899-4 0  9994
2 68217  97.2842 323.3866 0001556 111.3345 289.6086 15.80818844  3148
STARLINK-37108          
1 68218U 26053M   26088.16668981 -.00022790  00000+0 -11844-3 0  9992
2 68218  97.2842 323.3879 0001582 107.4898 297.7150 15.80835170  3144
STARLINK-37106          
1 68219U 26053N   26088.16668981 -.00134694  00000+0 -71141-3 0  9996
2 68219  97.2841 323.3896 0001576 101.6321 307.8636 15.80874032  3145
STARLINK-37030          
1 68220U 26053P   26088.16668981 -.00089005  00000+0 -46817-3 0  9995
2 68220  97.2844 323.3934 0001492  95.8613 322.1744 15.80838454  3146
STARLINK-37012          
1 68221U 26053Q   26088.16668981  .00054266  00000+0  28262-3 0  9999
2 68221  97.2837 323.3915 0001414  85.8256 327.9474 15.80790050  3146
STARLINK-37110          
1 68222U 26053R   26088.16668981 -.00063527  00000+0 -33281-3 0  9999
2 68222  97.2846 323.3951 0001677  93.2761 329.0280 15.80848770  3143
